ONEWEB-0296             
1 49085U 21075L   23059.23032553 -.00000022  00000+0 -95336-4 0  9998
2 49085  87.8934 230.0263 0002512 111.8394 248.3002 13.12441022 77519
ONEWEB-0296             
1 49085U 21075L   23059.53527504 -.00000068  00000+0 -22518-3 0  9997
2 49085  87.8934 229.9657 0002549 111.4331 248.7069 13.12440851 76560
ONEWEB-0296             
1 49085U 21075L   23059.91646133 -.00000019  00000+0 -89285-4 0  9990
2 49085  87.8936 229.8900 0002552 110.8915 249.2487 13.12440969 76613
ONEWEB-0296             
1 49085U 21075L   23060.45012237 -.00000013  00000+0 -71128-4 0  9994
2 49085  87.8938 229.7840 0002575 110.0059 250.1347 13.12440922 77675
ONEWEB-0296             
1 49085U 21075L   23060.90754650 -.00000042  00000+0 -15152-3 0  9992
2 49085  87.8941 229.6932 0002583 109.5512 250.5896 13.12440212 76748
ONEWEB-0296             
1 49085U 21075L   23061.82239470  .00000216  00000+0  56586-3 0  9999
2 49085  87.8945 229.5116 0002561 108.6543 251.4864 13.12438374 76869
ONEWEB-0296             
1 49085U 21075L   23062.43229294  .00000150  00000+0  38288-3 0  9996
2 49085  87.8947 229.3904 0002566 107.9690 252.1718 13.12438554 76949
ONEWEB-0296             
1 49085U 21075L   23062.43229294  .00000150  00000+0  38288-3 0  9996
2 49085  87.8947 229.3904 0002566 107.9690 252.1718 13.12438554 77939
ONEWEB-0296             
1 49085U 21075L   23062.88971647 -.00000009  00000+0 -61094-4 0  9998
2 49085  87.8948 229.2996 0002571 107.7448 252.3962 13.12439040 77007
